Fri,Mon,Sat,Thu,Tue,Wed,city,email,name,phone,street,type,zip
07:30 - 17:30,07:30 - 17:30,08:00 - 13:00,07:30 - 17:30,07:30 - 17:30,07:30 - 17:30,Dabas,dabas@unixauto.hu,Unix Dabas,+36/29-889236,Kossuth Lajos út 1,Distributor,2373
07:30 - 17:30,07:30 - 17:30,08:00 - 13:00,07:30 - 17:30,07:30 - 17:30,07:30 - 17:30,Monor,,Bárdi Autó Zrt.,3629814500,Külterület 0359/75 hrsz.,Distributor,2200
07:30 - 17:30,07:30 - 17:30,08:00 - 13:00,07:30 - 17:30,07:30 - 17:30,07:30 - 17:30,Cegléd,cegled@unixauto.hu,Unix Cegléd,+36/53-886360,Külső-Kátai út 1.,Distributor,2700
07:30 - 17:30,07:30 - 17:30,08:00 - 13:00,07:30 - 17:30,07:30 - 17:30,07:30 - 17:30,Cegléd,,Bárdi Autó Zrt.,3653814640,Jászberényi út 130.,Distributor,2700
,,,,,,Cegléd,autoclub@autoclubcegled.hu,Castrol SERVICE Autóclub Cegléd Kft,+36 209256929,Külső-Jászberényi út 3. (A műhely a Szelei út bejáratában van!),Castrol SERVICE,2700
,,,,,,Maglód,kiss.zsolt@kissgumikft.hu,Castrol SERVICE Kiss Gumi Kft.,+36 309664234,Gábor Áron utca 2.,Castrol SERVICE,2234
08:00 - 17:00,08:00 - 17:00,08:00 - 12:00,08:00 - 17:00,08:00 - 17:00,08:00 - 17:00,Kecskemét,kecskemet@langauto.hu,Láng Kft.,+36 76 814 860,Könyves Kálmán krt. 34.,Distributor,6000
07:30 - 17:30,07:30 - 17:30,08:00 - 13:00,07:30 - 17:30,07:30 - 17:30,07:30 - 17:30,Vecsés,vecses@unixauto.hu,Unix Vecsés,+36/29-889148,Fő út 187.,Distributor,2220
07:30 - 17:30,07:30 - 17:30,08:00 - 13:00,07:30 - 17:30,07:30 - 17:30,07:30 - 17:30,Kecskemét,,Bárdi Autó Zrt.,3676509590,Könyves Kálmán körút 38.,Distributor,6000
07:30 - 17:30,07:30 - 17:30,08:00 - 13:00,07:30 - 17:30,07:30 - 17:30,07:30 - 17:30,Kecskemét,kecskemet@unixauto.hu,Unix Kecskemét,+36/76-505279,Szent László krt. 29.,Distributor,6000
07:30 - 17:30,07:30 - 17:30,08:00 - 13:00,07:30 - 17:30,07:30 - 17:30,07:30 - 17:30,Dunaharaszti,,Bárdi Autó Zrt.,3624620310,Némedi út 63,Distributor,2330
07:30 - 17:30,07:30 - 17:30,08:00 - 13:00,07:30 - 17:30,07:30 - 17:30,07:30 - 17:30,Budapest,,Bárdi Autó Zrt.,3612944944,Nagykőrösi út 25.,Distributor,1188
07:30 - 17:30,07:30 - 17:30,08:00 - 13:00,07:30 - 17:30,07:30 - 17:30,07:30 - 17:30,Budapest,,Bárdi Autó Zrt.,3612655094,Cziffra György utca 115,Distributor,1182
07:30 - 17:30,07:30 - 17:30,08:00 - 13:00,07:30 - 17:30,07:30 - 17:30,07:30 - 17:30,Kiskunlacháza,,Bárdi Autó Zrt.,3624420479,Dózsa Gy. út 25.,Distributor,2340
07:30 - 17:30,07:30 - 17:30,08:00 - 13:00,07:30 - 17:30,07:30 - 17:30,07:30 - 17:30,Budapest XVII.,bp17ker@unixauto.hu,Unix Bp.XVII.Ker.,+36/1-2585370,Pesti  út 237/L,Distributor,1173
,,,,,,Budapest,delpest@autonet-group.com,Autonet Import Magyarország Kft.,+36 27 548 250,Közdűlő u. 53.,Distributor,1186
07:30 - 17:30,07:30 - 17:30,08:00 - 13:00,07:30 - 17:30,07:30 - 17:30,07:30 - 17:30,Budapest,,Bárdi Autó Zrt.,3612530932,Pesti út 234/a,Distributor,1173
,,,,,,Budapest,sportcarszerviz@gmail.com,Castrol SERVICE Best Sport Kft.,+36 205558883,Táncsics Mihály út 49.,Castrol SERVICE,1174
08:00 - 17:00,08:00 - 17:00,08:00 - 13:00,08:00 - 17:00,08:00 - 17:00,08:00 - 17:00,Budapest,delpest@langauto.hu,Láng Kft.,+36 1 434 6200,Lakatos út 40.,Distributor,1184
,,,,,,Budapest,service@trendy-car.hu,Castrol SERVICE Trendy-Car Kft,+36 703190239,Szilágyság u. 60.,Castrol SERVICE,1204
07:30 - 17:30,07:30 - 17:30,08:00 - 13:00,07:30 - 17:30,07:30 - 17:30,07:30 - 17:30,Budapest XIX.,bp19ker@unixauto.hu,Unix Bp.XIX.Ker.,+36/1-4543352,Üllői út 280,Distributor,1195
,,,,,,Szigetszentmiklós,coolcarservicekft@gmail.com,Castrol SERVICE Cool Car Service Kft,+36 309078530,Csepeli út 20.,Castrol SERVICE,2310
07:30 - 17:30,07:30 - 17:30,08:00 - 13:00,07:30 - 17:30,07:30 - 17:30,07:30 - 17:30,Szigetszentmiklós,szigetszentmiklos@unixauto.hu,Unix Szigetszentmiklós,+36/24-887316,Gyári út 88.,Distributor,2310
,,,,,,Tököl,info@tokesautoszerviz.hu,Castrol SERVICE Tőkés Autószerviz,+36 302850409,Vince Ipartelep,Castrol SERVICE,2316
07:30 - 17:30,07:30 - 17:30,08:00 - 13:00,07:30 - 17:30,07:30 - 17:30,07:30 - 17:30,Budapest XXI.,bp21ker@unixauto.hu,Unix Bp.XXI.Ker.,+36/1-8036889,Kossuth Lajos u. 160-164,Distributor,1214
07:30 - 17:30,07:30 - 17:30,08:00 - 13:00,07:30 - 17:30,07:30 - 17:30,07:30 - 17:30,Budapest,,Bárdi Autó Zrt.,3612782545,Ady Endre u. 63.,Distributor,1215
07:30 - 17:30,07:30 - 17:30,08:00 - 13:00,07:30 - 17:30,07:30 - 17:30,07:30 - 17:30,Budapest IX.,budapestix@unixauto.hu,Unix Bp.IX.Ker.,+36/1-3470938,Gubacsi út 95/C,Distributor,1097
07:30 - 17:30,07:30 - 17:30,08:00 - 13:00,07:30 - 17:30,07:30 - 17:30,07:30 - 17:30,Budapest X.,bp10ker@unixauto.hu,Unix Bp.X.Ker.,+36/1-2111508,Száva utca 8.,Distributor,1107
07:30 - 17:30,07:30 - 17:30,08:00 - 13:00,07:30 - 17:30,07:30 - 17:30,07:30 - 17:30,Buda,,Bárdi Autó Zrt.,3612194240,Vidámvásár utca 4.,Distributor,1164
07:30 - 17:30,07:30 - 17:30,08:00 - 13:00,07:30 - 17:30,07:30 - 17:30,07:30 - 17:30,Budapest XXII.,bp22ker@unixauto.hu,Unix Bp.XXII.Ker.,+36/1-4248104,Háros utca 11/a.,Distributor,1222
,,,,,,Budapest,info@kovesdan.hu,Kövesdán Kft,+36 1 229 2500,Hajó utca 1.,Independent,1221
,,,,,,Budapest,,Castrol SERVICE Dektor Kft.,,Veres Péter út 9,Castrol SERVICE,1163
07:30 - 17:30,07:30 - 17:30,08:00 - 13:00,07:30 - 17:30,07:30 - 17:30,07:30 - 17:30,Tököl,,Bárdi Autó Zrt.,3624814858,Hermina utca 1-3.,Distributor,2316
07:30 - 17:30,07:30 - 17:30,08:00 - 13:00,07:30 - 17:30,07:30 - 17:30,07:30 - 17:30,Budapest XVI. (D),bp16ker2@unixauto.hu,Unix Bp.XVI.Ker./2,+36/1-2111589,Veres Péter út 1-3.,Distributor,1163
07:30 - 17:30,07:30 - 17:30,08:00 - 13:00,07:30 - 17:30,07:30 - 17:30,07:30 - 17:30,Budapest,,Bárdi Autó Zrt.,3612076255,Nagytétényi út 165.,Distributor,1225
08:00 - 17:00,08:00 - 17:00,08:00 - 12:00,08:00 - 17:00,08:00 - 17:00,08:00 - 17:00,Budapest,csepelaruhaz@langauto.hu,Láng Kft.,+36 1 265 51 68,Szikratávíró u. hrsz. 210012/11.,Distributor,1211
08:00 - 17:00,08:00 - 17:00,08:00 - 13:00,08:00 - 17:00,08:00 - 17:00,08:00 - 17:00,Budapest,delbuda@langauto.hu,Láng Kft.,+36 1 899 9940,Vegyész u. 17-25/ B,Distributor,1116
07:30 - 17:30,07:30 - 17:30,08:00 - 13:00,07:30 - 17:30,07:30 - 17:30,07:30 - 17:30,Budapest,,Bárdi Autó Zrt.,3614020113,Körvasút sor 8.,Distributor,1161
07:30 - 17:30,07:30 - 17:30,08:00 - 13:00,07:30 - 17:30,07:30 - 17:30,07:30 - 17:30,Budapest XI.,bp11ker@unixauto.hu,Unix Bp.XI.Ker.,+36/1-8036204,Kondorosi u. 3.,Distributor,1116
08:00 - 18:00,08:00 - 18:00,08:00 - 13:00,08:00 - 18:00,08:00 - 18:00,08:00 - 18:00,Budapest,imre.fazekas@akh.hu,Abroncs Kereskedőház Kft,+36 1 371 3333,Soroksári út 158./a,Independent,1095
07:30 - 17:30,07:30 - 17:30,08:00 - 13:00,07:30 - 17:30,07:30 - 17:30,07:30 - 17:30,Dunaújváros,dunaujvaros@unixauto.hu,Unix Dunaújváros,+36/25-286002,Magyar út 108-1,Distributor,2400
,,,,,,Budapest,info@oemtechnik.hu,Castrol SERVICE OEM Technik Hungary Kft,36302452361,Timur utca 20.,Castrol SERVICE,1162
07:30 - 17:30,07:30 - 19:00,08:00 - 17:00,07:30 - 17:30,07:30 - 17:30,07:30 - 17:30,Budapest,,Bárdi Autó Zrt.,3613030930,Orczy út 44-46,Distributor,1089
08:00 - 18:00,08:00 - 18:00,08:00 - 13:00,08:00 - 18:00,08:00 - 18:00,08:00 - 18:00,Budapest,imre.fazekas@akh.hu,Abroncs Kereskedőház Kft,+36 1 371 3333,Fogarasi út 103.,Independent,1141
,,,,,,Budapest,krasznaicsaba78@gmail.com,Castrol SERVICE Stone-Autó Kft,+36 205652105,Csurgói út 15.,Castrol SERVICE,1119
07:30 - 17:30,07:30 - 17:30,08:00 - 13:00,07:30 - 17:30,07:30 - 17:30,07:30 - 17:30,Budapest XVI. (É),bp16ker@unixauto.hu,Unix Bp.XVI.Ker.,+36/1-4039564,Csömöri út.93-97.,Distributor,1161
08:00 - 17:00,08:00 - 17:00,08:00 - 12:00,08:00 - 17:00,08:00 - 17:00,08:00 - 17:00,Jászberény,jaszbereny@langauto.hu,Láng Kft.,+36 57 503 275,Kossuth u. 61.,Distributor,5100
,,,,,,Budapest,shop@ripca.hu,Castrol AUTOSERVICE Ripca Kft.,+36 1 422 1456,Mogyoródi út 32.,Independent,1149
,,,,,,Budapest,castrolmintabolt@gmail.com,Castrol AUTOSERVICE Ripca Kft.,36202224052,Mogyoródi út 32.,Independent,1149
08:00 - 18:00,08:00 - 18:00,08:00 - 13:00,08:00 - 18:00,08:00 - 18:00,08:00 - 18:00,Budapest,imre.fazekas@akh.hu,Abroncs Kereskedőház Kft,+36 1 371 3333,Mexikói út 18.,Independent,1149
08:00 - 18:00,08:00 - 18:00,08:00 - 13:00,08:00 - 18:00,08:00 - 18:00,08:00 - 18:00,Budapest,imre.fazekas@akh.hu,Abroncs Kereskedőház Kft,+36 1 371 3333,Fehérvári út 71-73,Independent,1119
07:30 - 17:30,07:30 - 17:30,08:00 - 13:00,07:30 - 17:30,07:30 - 17:30,07:30 - 17:30,Dunaújváros,,Bárdi Autó Zrt.,3625411103,Aranyvölgyi út 1526/6.hrsz.,Distributor,2400
07:30 - 17:30,07:30 - 17:30,08:00 - 13:00,07:30 - 17:30,07:30 - 17:30,07:30 - 17:30,Jászberény,jaszbereny@unixauto.hu,Unix Jászberény,+36/57-505800,Vásár tér 1.,Distributor,5100
07:30 - 17:30,07:30 - 17:30,08:00 - 13:00,07:30 - 17:30,07:30 - 17:30,07:30 - 17:30,Jászberény,,Bárdi Autó Zrt.,36203402543,Jásztelki út 1.,Distributor,5100
,,,,,,Szolnok,tothpeter@tothauto.com,Castrol SERVICE Tóth Péter E.V.,36202422724,Nagysándor József út 29.,Castrol SERVICE,5000
,,,,,,Dunaújváros,karosszeria@autoquality.hu,Castrol SERVICE Quality Dunaújváros Kft.,+36 25430633,Béke krt. 1.,Castrol SERVICE,2400
07:30 - 17:30,07:30 - 17:30,08:00 - 13:00,07:30 - 17:30,07:30 - 17:30,07:30 - 17:30,Érd,,Bárdi Autó Zrt.,3623814617,Budai út 13.,Distributor,2030
07:30 - 17:30,07:30 - 17:30,08:00 - 13:00,07:30 - 17:30,07:30 - 17:30,07:30 - 17:30,Szolnok,szolnok@unixauto.hu,Unix Szolnok,+36/56-513931,Mozdony út 4.,Distributor,5000
,,,,,,Budaörs,budaors@autonet-group.com,Autonet Import Magyarország Kft.,+36 27 548 250,Iparos u. 3-5.,Distributor,2040
07:30 - 17:30,07:30 - 17:30,08:00 - 13:00,07:30 - 17:30,07:30 - 17:30,07:30 - 17:30,Érd (D),erd@unixauto.hu,Unix Érd,+36/23-520926,Velencei út 33.,Distributor,2030
07:30 - 17:30,07:30 - 17:30,08:00 - 13:00,07:30 - 17:30,07:30 - 17:30,07:30 - 17:30,Gödöllő,godollo@unixauto.hu,Unix Gödöllő,+36/28-412808,Dózsa György út 88-90.,Distributor,2100
07:30 - 17:30,07:30 - 17:30,08:00 - 13:00,07:30 - 17:30,07:30 - 17:30,07:30 - 17:30,Budaörs,,Bárdi Autó Zrt.,3623430039,Vasút utca 3.,Distributor,2040
08:00 - 18:00,08:00 - 18:00,08:00 - 13:00,08:00 - 18:00,08:00 - 18:00,08:00 - 18:00,Budaörs,imre.fazekas@akh.hu,Abroncs Kereskedőház Kft,+36 1 371 3333,Kinizsi u. 40.,Independent,2040
,,,,,,Budapest,saab@szikicar.hu,Castrol SERVICE SZiki-Car Kft.,3612395464,Komáromi út 34,Castrol SERVICE,1142
07:30 - 17:30,07:30 - 17:30,08:00 - 13:00,07:30 - 17:30,07:30 - 17:30,07:30 - 17:30,Budaörs,budaors@unixauto.hu,Unix Budaörs,+36/23-428080,Kinizsi u.4-6,Distributor,2040
07:30 - 17:30,07:30 - 17:30,08:00 - 13:00,07:30 - 17:30,07:30 - 17:30,07:30 - 17:30,Godollo,,Bárdi Autó Zrt.,3628814870,Dózsa Gy. út 160.,Distributor,2100
07:30 - 17:30,07:30 - 19:00,08:00 - 13:00,07:30 - 17:30,07:30 - 17:30,07:30 - 17:30,Budapest,,Bárdi Autó Zrt.,3615771520,Wesselényi utca 9.,Distributor,1154
,,,,,,Gödöllő,ecowheels00@gmail.com,EcoWheels Kft Castrol SERVICE,36703383300,Dózsa György út 160.,Castrol SERVICE,2100
07:30 - 17:30,07:30 - 17:30,08:00 - 13:00,07:30 - 17:30,07:30 - 17:30,07:30 - 17:30,Szolnok,,Bárdi Autó Zrt.,3656374493,Szántó krt. 56.,Distributor,5000
08:00 - 18:00,08:00 - 18:00,08:00 - 13:00,08:00 - 18:00,08:00 - 18:00,08:00 - 18:00,Budapest,imre.fazekas@akh.hu,Abroncs Kereskedőház Kft,+36 1 371 3333,Alkotás utca 20-22.,Independent,1012
07:30 - 19:00,07:30 - 19:00,08:00 - 13:00,07:30 - 19:00,07:30 - 19:00,07:30 - 19:00,Budapest XIII.,info@unixauto.hu,Unix Bp.XIII.Ker.,+36/1-2708700,Frangepán u. 55-57.,Distributor,1139
07:30 - 17:30,07:30 - 17:30,08:00 - 13:00,07:30 - 17:03,07:30 - 17:30,07:30 - 17:30,Budapest,,Bárdi Autó Zrt.,3614570180,Batthyány u. 24.,Distributor,1015
,,,,,,Budapest,hnh@hnhautoszerviz.hu,Castrol SERVICE HNH Kft.,+36 1 271 00 16,Aporháza utca 61.,Independent,1152
,,,,,,Budapest,hnh@hnhautoszerviz.hu,HNH Autószerviz Kft. Castrol SERVICE,+361 2710016,Aporháza u. 61.,Castrol SERVICE,1152
07:30 - 17:30,07:30 - 17:30,08:00 - 13:00,07:30 - 17:30,07:30 - 17:30,07:30 - 17:30,Budapest XV.,bp15ker@unixauto.hu,Unix Bp.XV.Ker.,+36/1-8038598,Rákos út 59.,Distributor,1152
,,,,,,Bag,topcarteam@gmail.hu,Castrol SERVICE Top Car Team Kft.,+36 702063885,Dózsa György út 2,Castrol SERVICE,2191
,,,,,,Budapest,kamiteam1@gmail.com,Castrol SERVICE Palla Autószerviz Kft.,+36 306702670,Chinoin utca 36.,Castrol SERVICE,1045
08:00 - 18:00,08:00 - 18:00,08:00 - 13:00,08:00 - 18:00,08:00 - 18:00,08:00 - 18:00,Budapest,imre.fazekas@akh.hu,Abroncs Kereskedőház Kft,+36 1 371 3333,Árpád Fejedelem útja 99.,Independent,1033
08:00 - 18:00,08:00 - 18:00,08:00 - 13:00,08:00 - 18:00,08:00 - 18:00,08:00 - 18:00,Budapest,imre.fazekas@akh.hu,Abroncs Kereskedőház Kft,+36 1 371 3333,Pusztaszeri út 15.,Independent,1025
07:30 - 17:30,07:30 - 17:30,08:00 - 13:00,07:30 - 17:30,07:30 - 17:30,07:30 - 17:30,Érd (É),erd2@unixauto.hu,Unix Érd II.,+36/23-806390,Bem tér 1.,Distributor,2030
,,,,,,Solt,bzsof@tvnetwork.hu,Castrol SERVICE Bárdkai Kft.,,Vecsei út 11.,Castrol SERVICE,6320
07:30 - 17:30,07:30 - 17:30,08:00 - 13:00,07:30 - 17:30,07:30 - 17:30,07:30 - 17:30,Budapest,,Bárdi Autó Zrt.,3612303173,Óceánárok utca 29.,Distributor,1048
07:30 - 17:30,07:30 - 17:30,08:00 - 13:00,07:30 - 17:30,07:30 - 17:30,07:30 - 17:30,Kiskunfélegyháza,,Bárdi Autó Zrt.,3676539832,Dr. Holló Lajos utca 74.,Distributor,6100
,,,,,,Budapest,info@autoszum.hu,Castrol SERVICE Auto-Szum Kft.,+36 705076983,Perényi Zsigmond utca 12.,Castrol SERVICE,1044
08:00 - 18:00,08:00 - 18:00,08:00 - 13:00,08:00 - 18:00,08:00 - 18:00,08:00 - 18:00,Budapest,imre.fazekas@akh.hu,Abroncs Kereskedőház Kft,+36 1 371 3333,Megyeri út 15./a,Independent,1044
07:30 - 17:30,07:30 - 17:30,08:00 - 13:00,07:30 - 17:30,07:30 - 17:30,07:30 - 17:30,Veresegyház,veresegyhaz@unixauto.hu,Unix Veresegyház,+36/28-500143,Szadai út 18/C,Distributor,2112
,,,,,,Veresegyház,pz.szinkron@gmail.com,Castrol SERVICE Szinkron-Car Kft.,36309148484,Szadai u 11,Castrol SERVICE,2112
07:30 - 17:30,07:30 - 17:30,08:00 - 13:00,07:30 - 17:30,07:30 - 17:30,07:30 - 17:30,Budapest IV.,bp4ker@unixauto.hu,Unix Bp.IV.Ker.,+36/1-2454552,Váci út 83,Distributor,1044
08:00 - 17:00,08:00 - 17:00,08:00 - 13:00,08:00 - 17:00,08:00 - 17:00,08:00 - 17:00,Budapest,aruhaz@langauto.hu,Láng Kft.,+36 1 451 9600,Óradna u. 12.,Distributor,1044
07:30 - 17:30,07:30 - 17:30,08:00 - 13:00,07:30 - 17:30,07:30 - 17:30,07:30 - 17:30,Kiskunfélegyháza,kiskunfelegyhaza@unixauto.hu,Unix Kiskunfélegyháza,+36/76-887274,Szegedi út 54.,Distributor,6100
,,,,,,Dunakeszi,info@autonyiri.hu,Castrol SERVICE Autónyiri Kft.,+36 303396764,Egressy utca 4.,Castrol SERVICE,2120
07:30 - 17:30,07:30 - 17:30,08:00 - 13:00,07:30 - 17:30,07:30 - 17:30,07:30 - 17:30,Budapest III. (É),bp3ker@unixauto.hu,Unix Bp III.Ker.,+36/1-4391592,Szentendrei út 255.,Distributor,1039
,,,,,,Dunakeszi,szerviz@idealauto.hu,Castrol Service Ideal Autó Szervíz Kft.,3627541441,Pallag u 13,Castrol SERVICE,2120
07:30 - 17:30,07:30 - 17:30,08:00 - 13:00,07:30 - 17:30,07:30 - 17:30,07:30 - 17:30,Hatvan,hatvan@unixauto.hu,Unix Hatvan,+36/37-345640,Horváth Mihály út 69.,Distributor,3000
08:00 - 17:00,08:00 - 17:00,08:00 - 12:00,08:00 - 17:00,08:00 - 17:00,08:00 - 17:00,Hatvan,hatvan@langauto.hu,Láng Kft.,+36 37 814 062,Horváth Mihály út 73.,Distributor,3000
07:30 - 17:30,07:30 - 17:30,08:00 - 13:00,07:30 - 17:30,07:30 - 17:30,07:30 - 17:30,Budapest,,Bárdi Autó Zrt.,3614391934,Mátyás király út 58.,Distributor,1039
,,,,,,Dunakeszi,officehu@autonet-group.com,Autonet Import Magyarország Kft.,+36 27 548 250,Pallag utca 43.,Distributor,2120
07:30 - 17:30,07:30 - 17:30,08:00 - 13:00,07:30 - 17:30,07:30 - 17:30,07:30 - 17:30,Hatvan,,Bárdi Autó Zrt.,3637814520,Bibó István u.3.,Distributor,3000
08:00 - 18:00,08:00 - 18:00,08:00 - 13:00,08:00 - 18:00,08:00 - 18:00,08:00 - 18:00,Budapest,imre.fazekas@akh.hu,Abroncs Kereskedőház Kft,+36 1 371 3333,Batthyány u. 70.,Independent,1039
07:30 - 17:30,07:30 - 17:30,08:00 - 13:00,07:30 - 17:30,07:30 - 17:30,07:30 - 17:30,Dunakeszi,dunakeszi@unixauto.hu,Unix Dunakeszi,+36/27-887311,Fő út 24,Distributor,2120
07:30 - 17:30,07:30 - 17:30,08:00 - 13:00,07:30 - 17:30,07:30 - 17:30,07:30 - 17:30,Solymár,solymar@unixauto.hu,Unix Solymár,+36/26-560263,Bécsi út 17/C,Distributor,2083
07:30 - 17:30,07:30 - 17:30,08:00 - 13:00,07:30 - 17:30,07:30 - 17:30,07:30 - 17:30,Kiskoros,,Bárdi Autó Zrt.,3678814500,Dózsa Gy.út 28.,Distributor,6200
07:30 - 17:30,07:30 - 17:30,08:00 - 13:00,07:30 - 17:30,07:30 - 17:30,07:30 - 17:30,Szentendre,szentendre@unixauto.hu,Unix Szentendre,+36/26-889100,Dózsa György út 87.,Distributor,2000
,,,,,,Göd,info@essmotor.hu,Castrol SERVICE ESS Motor Kft,+36 305367175,Nemeskéri köz 1.,Castrol SERVICE,2131
07:30 - 17:30,07:30 - 17:30,08:00 - 13:00,07:30 - 17:30,07:30 - 17:30,07:30 - 17:30,Soltvadkert,soltvadkert@unixauto.hu,Unix Soltvadkert,+36/78-886610,Kossuth u.110.,Distributor,6230
07:30 - 17:30,07:30 - 17:30,08:00 - 13:00,07:30 - 17:30,07:30 - 17:30,07:30 - 17:30,Pilisvörösvár,,Bárdi Autó Zrt.,3626814630,Ipartelep u.2.,Distributor,2085
08:00 - 17:00,08:00 - 17:00,08:00 - 12:00,08:00 - 17:00,08:00 - 17:00,08:00 - 17:00,Pilisvörösvár,pilisvorosvar@langauto.hu,Láng Kft.,+36 26 332 642,Szent László u. 10.,Distributor,2085
07:30 - 17:30,07:30 - 17:30,08:00 - 13:00,07:30 - 17:30,07:30 - 17:30,07:30 - 17:30,Vác,vac@unixauto.hu,Unix Vác,+36/27-311290,Szent László út 11.,Distributor,2600
07:30 - 17:30,07:30 - 17:30,08:00 - 13:00,07:30 - 17:30,07:30 - 17:30,07:30 - 17:30,Gyöngyös,,Bárdi Autó Zrt.,3637814597,Déli Külhatár út 2,Distributor,3200
08:00 - 17:00,08:00 - 17:00,08:00 - 13:00,08:00 - 17:00,08:00 - 17:00,08:00 - 17:00,Vác,vac@langauto.hu,Láng Kft.,+36 27 307 840,Rádi út 1-3.,Distributor,2600
07:30 - 17:30,07:30 - 17:30,08:00 - 13:00,07:30 - 17:30,07:30 - 17:30,07:30 - 17:30,Sárbogárd,,Bárdi Autó Zrt.,3625620152,Ady Endre út 198,Distributor,7000
07:30 - 17:30,07:30 - 17:30,08:00 - 13:00,07:30 - 17:30,07:30 - 17:30,07:30 - 17:30,Sárbogárd,sarbogard@unixauto.hu,Unix Sárbogárd,+36/25-889101,Ady Endre út 210.,Distributor,7000
07:30 - 17:30,07:30 - 17:30,08:00 - 13:00,07:30 - 17:30,07:30 - 17:30,07:30 - 17:30,Gyöngyös,gyongyos@unixauto.hu,Unix Gyöngyös,+36/37-304249,Vásár utca 1.,Distributor,3200
07:30 - 17:30,07:30 - 17:30,08:00 - 13:00,07:30 - 17:30,07:30 - 17:30,07:30 - 17:30,Vác,,Bárdi Autó Zrt.,3627814595,Kodály Zoltán út 2.,Distributor,2600
,,,,,,Székesfehérvár,szekesfehervar@autonet-group.com,Autonet Import Magyarország Kft.,+36 27 548 250,Zsurló u. 14. C épület,Distributor,8000
07:30 - 17:30,07:30 - 17:30,08:00 - 13:00,07:30 - 17:30,07:30 - 17:30,07:30 - 17:30,Szentes,szentes@unixauto.hu,Unix Szentes,+36/63-311218,Alsórét 250/A,Distributor,6600
07:30 - 17:30,07:30 - 17:30,08:00 - 13:00,07:30 - 17:30,07:30 - 17:30,07:30 - 17:30,Paks,paks@unixauto.hu,Unix Paks,+36/75-889110,Nyárfa u. 1.,Distributor,7030
07:30 - 17:30,07:30 - 17:30,08:00 - 13:00,07:30 - 17:30,07:30 - 17:30,07:30 - 17:30,Paks,,Bárdi Autó Zrt.,3675814050,Tolnai út 26.,Distributor,7030
07:30 - 17:30,07:30 - 17:30,08:00 - 13:00,07:30 - 17:30,07:30 - 17:30,07:30 - 17:30,Szentes,,Bárdi Autó Zrt.,3663814870,Csongárdi út 67.,Distributor,6600
,,,,,,Szentes,atti-14@vipmail.hu,Castrol SERVICE Pro-M-Car Kft.,36203935522,Jókai Mór utca 63.,Castrol SERVICE,6600
07:30 - 17:30,07:30 - 17:30,08:00 - 13:00,07:30 - 17:30,07:30 - 17:30,07:30 - 17:30,Székesfehérvár,,Bárdi Autó Zrt.,3622505197,Szent Flórián krt. 4/A,Distributor,8000
07:30 - 17:30,07:30 - 17:30,08:00 - 13:00,07:30 - 17:30,07:30 - 17:30,07:30 - 17:30,Kiskunhalas,kiskunhalas@unixauto.hu,Unix Kiskunhalas,+36/77-997001,Átlós u. 35-37.,Distributor,6400
07:30 - 17:30,07:30 - 17:30,08:00 - 13:00,07:30 - 17:30,07:30 - 17:30,07:30 - 17:30,Székesfehérvár,szekesfehervar@unixauto.hu,Unix Székesfehérvár,+36/22-500260,Zámolyi út 020022/110 HRSZ,Distributor,8000
07:30 - 17:30,07:30 - 17:30,08:00 - 13:00,07:30 - 17:30,07:30 - 17:30,07:30 - 17:30,Kiskunhalas,,Bárdi Autó Zrt.,3677814060,Szabadkai út 35.,Distributor,6400
,,,,,,Csolnok,szabiauto@gmail.com,Castrol SERVICE Szabi-Autó Kft,+36 202529760,Táncsics M. utca 4.,Castrol SERVICE,2521
08:00 - 17:00,08:00 - 17:00,08:00 - 12:00,08:00 - 17:00,08:00 - 17:00,08:00 - 17:00,Székesfehérvár,szekesfehervar@langauto.hu,Láng Kft.,+36 22 340 314,Móri út 154.,Distributor,8000
,,,,,,Székesfehérvár,t.csoko@osz-car.hu,Castrol SERVICE Osz-Car Szerviz,36302860478,Új Csóri út 7,Castrol SERVICE,8000
07:30 - 17:30,07:30 - 17:30,08:00 - 13:00,07:30 - 17:30,07:30 - 17:30,07:30 - 17:30,Szarvas,szarvas@unixauto.hu,Unix Szarvas,+36/66-510694,Vasút u. 31.,Distributor,5540
,,,,,,Mezőtúr,info@zohatrans.hu,Castrol SERVICE ZO-HA Trans Kft.,36305862020,Bem József u 2,Castrol SERVICE,5400
07:30 - 17:30,07:30 - 17:30,08:00 - 13:00,07:30 - 17:30,07:30 - 17:30,07:30 - 17:30,Szarvas,,Bárdi Autó Zrt.,3666520021,Csabai út 1/2.,Distributor,5540
07:30 - 17:30,07:30 - 17:30,08:00 - 13:00,07:30 - 17:30,07:30 - 17:30,07:30 - 17:30,Esztergom,esztergom@unixauto.hu,Unix Esztergom,+36/33-889108,Kertész utca 5.,Distributor,2500
07:30 - 17:30,07:30 - 17:30,08:00 - 13:00,07:30 - 17:30,07:30 - 17:30,07:30 - 17:30,Esztergom,,Bárdi Autó Zrt.,3633814060,Bánomi út 21003.hrsz.,Distributor,2500
07:30 - 17:30,07:30 - 17:30,08:00 - 13:00,07:30 - 17:30,07:30 - 17:30,07:30 - 17:30,Tatabánya,tatabanya@unixauto.hu,Unix Tatabánya,+36/34-511530,Szent Borbála út 22.,Distributor,2800
,,,,,,Bátonyterenye,laszlo.loy@nogradmuszaki.hu,Castrol SERVICE L&L Leasy-Consulting Bt.,+36 702832441,hrsz. 939/41.,Castrol SERVICE,3070
08:00 - 17:00,08:00 - 17:00,08:00 - 12:00,08:00 - 17:00,08:00 - 17:00,08:00 - 17:00,Tatabánya,tatabanya@langauto.hu,Láng Kft.,+36 34 309 932,Dankó Pista u. 17/a,Distributor,2800
07:30 - 17:30,07:30 - 17:30,08:00 - 13:00,07:30 - 17:30,07:30 - 17:30,07:30 - 17:30,Tatabánya,,Bárdi Autó Zrt.,3634301286,Győri út 37/a,Distributor,2800
07:30 - 17:30,07:30 - 17:30,08:00 - 13:00,07:30 - 17:30,07:30 - 17:30,07:30 - 17:30,Mór,mor@unixauto.hu,Unix Mór,+36/22-880557,Mikes Kelemen út 6.,Distributor,8060
07:30 - 17:30,07:30 - 17:30,08:00 - 13:00,07:30 - 17:30,07:30 - 17:30,07:30 - 17:30,Mór,,Bárdi Autó Zrt.,3613030930,Velegi út 1/A,Distributor,8060
,,,,,,Hódmezővásárhely,gyermanzsolt@tmax.hu,Castrol SERVICE Afit 2000 Kft.,+36 62 535 700,Szántó Kovács János utca 178,Independent,6800
,,,,,,Hódmezővásárhely,ludescher@tmax.hu,Castrol SERVICE Afit 2000 Kft.,+362 026 35439,Szántó Kovács János u. 178.,Castrol SERVICE,6800
07:30 - 17:30,07:30 - 17:30,08:00 - 13:00,07:30 - 17:30,07:30 - 17:30,07:30 - 17:30,Balassagyarmat,,Bárdi Autó Zrt.,3635313500,Kóvári út 8,Distributor,2660
07:30 - 17:30,07:30 - 17:30,08:00 - 13:00,07:30 - 17:30,07:30 - 17:30,07:30 - 17:30,Hódmezővásárhely,hodmezovasarhely@unixauto.hu,Unix Hódmezővásárhely,+36/62-221399,Szántó Kovács János u.108.,Distributor,6800
,,,,,,Balassagyarmat,ricso.mgal@gmail.com,Gál és Fia Kft,+36 35 314 366,Kóvári út 6/a,Independent,2660
,,,,,,Balassagyarmat,ricso.mgal@gmail.com,Castrol SERVICE Gál és Fiai Kft.,+36 209585797,Kóvári út 6.,Castrol SERVICE,2660
07:30 - 17:30,07:30 - 17:30,08:00 - 13:00,07:30 - 17:30,07:30 - 17:30,07:30 - 17:30,Balassagyarmat,balassagyarmat@unixauto.hu,Unix Balassagyarmat,+36/35-886809,Kóvári út 4/A.,Distributor,2660
07:30 - 17:30,07:30 - 17:30,08:00 - 13:00,07:30 - 17:30,07:30 - 17:30,07:30 - 17:30,Várpalota,,Bárdi Autó Zrt.,3688814566,Grábler-tó utca 12,Distributor,8100
07:30 - 17:30,07:30 - 17:30,08:00 - 13:00,07:30 - 17:30,07:30 - 17:30,07:30 - 17:30,Várpalota,varpalota@unixauto.hu,Unix Várpalota,+36/88-889129,Szent Imre utca 15.,Distributor,8100
07:30 - 17:30,07:30 - 17:30,08:00 - 13:00,07:30 - 17:30,07:30 - 17:30,07:30 - 17:30,Gyomaendrőd,gyomaendrod@unixauto.hu,Unix Gyomaendrőd,+36/66-280288,Bajcsy-ZSilinszky út 53.,Distributor,5500
07:30 - 17:30,07:30 - 17:30,08:00 - 13:00,07:30 - 17:30,07:30 - 17:30,07:30 - 17:30,Eger,,Bárdi Autó Zrt.,3636322526,Kistályai út 16.,Distributor,3300
08:00 - 17:00,08:00 - 17:00,08:00 - 12:00,08:00 - 17:00,08:00 - 17:00,08:00 - 17:00,Eger,eger@langauto.hu,Láng Kft.,+36 36 886 100,Mátyás király út 37/b,Distributor,3300
07:30 - 17:30,07:30 - 17:30,08:00 - 13:00,07:30 - 17:30,07:30 - 17:30,07:30 - 17:30,Eger,eger@unixauto.hu,Unix Eger,+36/36-515702,Mátyás Király út 4-6.,Distributor,3300
07:30 - 17:30,07:30 - 17:30,08:00 - 13:00,07:30 - 17:30,07:30 - 17:30,07:30 - 17:30,Hodmezovasarhely,,Bárdi Autó Zrt.,3662814520,Kaszap u.20.,Distributor,6800
07:30 - 17:30,07:30 - 17:30,08:00 - 13:00,07:30 - 17:30,07:30 - 17:30,07:30 - 17:30,Salgótarján,salgotarjan@unixauto.hu,Unix Salgótarján,+36/32-513410,Rákóczi út 135/a,Distributor,3100
,,,,,,Salgótarján,salgotarjan@autonet-group.com,Autonet Import Magyarország Kft.,+36 27 548 250,Bajcsy-Zsilinszky út 49-51.,Distributor,3100
07:30 - 17:30,07:30 - 17:30,08:00 - 13:00,07:30 - 17:30,07:30 - 17:30,07:30 - 17:30,Karcag,karcag@unixauto.hu,Unix Karcag,+36/59-889101,Kisújszállási út 110.,Distributor,5300
07:30 - 17:30,07:30 - 17:30,08:00 - 13:00,07:30 - 17:30,07:30 - 17:30,07:30 - 17:30,Salgótarján,,Bárdi Autó Zrt.,3632432312,Bajcsy-Zsilinszky út 5.,Distributor,3100
,,,,,,Szekszárd,szekszard@autonet-group.com,Autonet Import Magyarország Kft.,+36 27 548 250,Pásztor u. 2.,Distributor,7100
07:30 - 17:30,07:30 - 17:30,08:00 - 13:00,07:30 - 17:30,07:30 - 17:30,07:30 - 17:30,Szekszárd,,Bárdi Autó Zrt.,3674312184,Palánki út 5/a,Distributor,7100
07:30 - 17:30,07:30 - 17:30,08:00 - 13:00,07:30 - 17:30,07:30 - 17:30,07:30 - 17:30,Szekszárd,szekszard@unixauto.hu,Unix Szekszárd,+36/74-511313,Rákóczi u.134/A.,Distributor,7100
07:30 - 17:30,07:30 - 17:30,08:00 - 13:00,07:30 - 17:30,07:30 - 17:30,07:30 - 17:30,Karcag,,Bárdi Autó Zrt.,3659814530,Madarasi út 61,Distributor,5300
08:00 - 17:00,08:00 - 17:00,08:00 - 12:00,08:00 - 17:00,08:00 - 17:00,08:00 - 17:00,Szekszárd,szekszard@langauto.hu,Láng Kft.,+36 74 509 836,Rákóczi u. 48.,Distributor,7100
,,,,,,Szeged,autodigitalkft@gmail.com,Castrol SERVICE Auto Digital Kft.,+36 202620656,Dorozsmai út 35.,Castrol SERVICE,6728
07:30 - 17:30,07:30 - 17:30,08:00 - 13:00,07:30 - 17:30,07:30 - 17:30,07:30 - 17:30,Tamási,tamasi@unixauto.hu,Unix Tamási,+36/74-887599,Rákóczi u. 87.,Distributor,7090
07:30 - 17:30,07:30 - 17:30,08:00 - 13:00,07:30 - 17:30,07:30 - 17:30,07:30 - 17:30,Szeged,,Bárdi Autó Zrt.,3662814670,Dorozsmai út 52.,Distributor,6700
,,,,,,Szeged,szeged@autonet-group.com,Autonet Import Magyarország Kft.,+36 27 548 250,Napos u. 9.,Distributor,6728
07:30 - 17:30,07:30 - 17:30,08:00 - 13:00,07:30 - 17:30,07:30 - 17:30,07:30 - 17:30,Tamási,,Bárdi Autó Zrt.,3674509996,Garay u. 1-3.,Distributor,7090
08:00 - 17:00,08:00 - 17:00,08:00 - 12:00,08:00 - 17:00,08:00 - 17:00,08:00 - 17:00,Szeged,szeged@langauto.hu,Láng Kft.,+36 62 814 672,Dorozsmai út 6.,Distributor,6791
07:30 - 17:30,07:30 - 17:30,08:00 - 13:00,07:30 - 17:30,07:30 - 17:30,07:30 - 17:30,Orosháza,oroshaza@unixauto.hu,Unix Orosháza,+36/68-512510,Október 6.u.26.,Distributor,5900
07:30 - 17:30,07:30 - 17:30,08:00 - 13:00,07:30 - 17:30,07:30 - 17:30,07:30 - 17:30,Szeged,,Bárdi Autó Zrt.,3662620020,József Attila sugárút 115,Distributor,6723
07:30 - 17:30,07:30 - 17:30,08:00 - 13:00,07:30 - 17:30,07:30 - 17:30,07:30 - 17:30,Orosháza,,Bárdi Autó Zrt.,3668510150,Csorvási út 54.,Distributor,5900
07:30 - 17:30,07:30 - 17:30,08:00 - 13:00,07:30 - 17:30,07:30 - 17:30,07:30 - 17:30,Szeged,szeged@unixauto.hu,Unix Szeged,+36/62-550490,Bakay Nándor út. 29.,Distributor,6724
07:30 - 17:30,07:30 - 17:30,08:00 - 13:00,07:30 - 17:30,07:30 - 17:30,07:30 - 17:30,Siófok,siofok@unixauto.hu,Unix Siófok,+36/84-510030,Ipar utca 4,Distributor,8600
,,,,,,Siófok,info@autoszervizsiofok.hu,Autóprofil Kft,+36 84 315 827,Vak Bottyán utca 32.,Independent,8600
,,,,,,Siófok,szalczgruber@fordautoprofil.t-online.hu,Castrol SERVICE Autoprofil Kft.,+36 309699889,Vak Bottyán utca 32.,Castrol SERVICE,8600
,,,,,,Szeged,csabacsiszar75@gmail.com,Castrol SERVICE Csiszár Csaba e.v.,+36 309857281,Tompai Kapu út 9.,Castrol SERVICE,6725
08:00 - 17:00,08:00 - 17:00,08:00 - 12:00,08:00 - 17:00,08:00 - 17:00,08:00 - 17:00,Baja,baja@langauto.hu,Láng Kft.,+36 79 814 060,Dózsa György u. 213.,Distributor,6500
07:30 - 17:30,07:30 - 17:30,08:00 - 13:00,07:30 - 17:30,07:30 - 17:30,07:30 - 17:30,Siófok,,Bárdi Autó Zrt.,3684310095,Fő út 150.-152,Distributor,8600
07:30 - 17:30,07:30 - 17:30,08:00 - 13:00,07:30 - 17:30,07:30 - 17:30,07:30 - 17:30,Baja,,Bárdi Autó Zrt.,3679814560,Dózsa Gy.út 113.,Distributor,6500
07:30 - 17:30,07:30 - 17:30,08:00 - 13:00,07:30 - 17:30,07:30 - 17:30,07:30 - 17:30,Baja,baja@unixauto.hu,Unix Baja,+36/79-522991,Szegedi út 64.,Distributor,6500
,,,,,,Szeged,gorbeauto@gmail.com,Castrol SERVICE Görbe László e.v.,+36 303007468,Makai út 168.,Castrol SERVICE,6771
,,,,,,Baja,info@radialtrade.hu,Castrol SERVICE Radial Trade Kft.,+36 309988337,Dózsa Gy út 64.,Castrol SERVICE,6500
,,,,,,Hódmezővásárhely,autoszerviz@roleri.hu,Castrol SERVICE Roleri-Fém Kft.,+36 306908849,"Makói út, Ipari park HRSz, 6491/25",Castrol SERVICE,6800
,,,,,,Veszprém,gszeghalmi@intercars.eu,Castrol SERVICE Autóház -Veszprém Kft.,36209322650,Budapesti út 72,Castrol SERVICE,8200
07:30 - 17:30,07:30 - 17:30,08:00 - 13:00,07:30 - 17:30,07:30 - 17:30,07:30 - 17:30,Veszprém,veszprem@unixauto.hu,Unix Veszprém,+36/88-580640,Mártirok utja 13.,Distributor,8200
,,,,,,Tab,farkas.auto@vipmail.hu,Castrol SERVICE Farkas Autószerviz,36307420772,Munkás út 5,Castrol SERVICE,8660
07:30 - 17:30,07:30 - 17:30,08:00 - 13:00,07:30 - 17:30,07:30 - 17:30,07:30 - 17:30,Komárom,,Bárdi Autó Zrt.,3634814578,Mártírok útja 80.,Distributor,2900
07:30 - 17:30,07:30 - 17:30,08:00 - 13:00,07:30 - 17:30,07:30 - 17:30,07:30 - 17:30,Komárom,komarom@unixauto.hu,Unix Komárom,+36/34-880554,Báthory út 1,Distributor,2900
08:00 - 17:00,08:00 - 17:00,08:00 - 12:00,08:00 - 17:00,08:00 - 17:00,08:00 - 17:00,Veszprém,veszprem@langauto.hu,Láng Kft.,+36 88 545 600,Pápai út 37.,Distributor,8200
07:30 - 17:30,07:30 - 17:30,08:00 - 13:00,07:30 - 17:30,07:30 - 17:30,07:30 - 17:30,Veszprém,,Bárdi Autó Zrt.,3688325272,Kistó utca 23.,Distributor,8200
,,,,,,Bonyhád,automestergarancia@gmail.com,Castrol SERVICE Korean-Autóház Kft.,+36 202334100,Perczel Mór utca 80.,Castrol SERVICE,7150
07:30 - 17:30,07:30 - 17:30,08:00 - 13:00,07:30 - 17:30,07:30 - 17:30,07:30 - 17:30,Zirc,zirc@unixauto.hu,Unix Zirc,+36/88-889128,Kossuth Lajos utca 72.,Distributor,8420
07:30 - 17:30,07:30 - 17:30,08:00 - 13:00,07:30 - 17:30,07:30 - 17:30,07:30 - 17:30,Balatonfüred,balatonfured@unixauto.hu,Unix Balatonfüred,+36/87-888690,Arácsi út 16.,Distributor,8230
07:30 - 17:30,07:30 - 17:30,08:00 - 13:00,07:30 - 17:30,07:30 - 17:30,07:30 - 17:30,Makó,mako@unixauto.hu,Unix Makó,+36/62-209500,Deák Ferenc u. 61.,Distributor,6900
07:30 - 17:30,07:30 - 17:30,08:00 - 13:00,07:30 - 17:30,07:30 - 17:30,07:30 - 17:30,Makó,,Bárdi Autó Zrt.,3662814645,Szegedi utca 30.,Distributor,6900
08:00 - 17:00,08:00 - 17:00,08:00 - 12:00,08:00 - 17:00,08:00 - 17:00,08:00 - 17:00,Békéscsaba,bekescsaba@langauto.hu,Láng Kft.,+36 66 524 200,Ipari út 42.,Distributor,5600
07:30 - 17:30,07:30 - 17:30,08:00 - 13:00,07:30 - 17:30,07:30 - 17:30,07:30 - 17:30,Békéscsaba,,Bárdi Autó Zrt.,3666451110,Szarvasi út 72.,Distributor,5600
07:30 - 17:30,07:30 - 17:30,08:00 - 13:00,07:30 - 17:30,07:30 - 17:30,07:30 - 17:30,Ózd,ozd@unixauto.hu,Unix Ózd,+36/48-889106,Malom út 1.,Distributor,3600
07:30 - 17:30,07:30 - 17:30,08:00 - 13:00,07:30 - 17:30,07:30 - 17:30,07:30 - 17:30,Ózd,,Bárdi Autó Zrt.,3648814820,Vasvár út 60.,Distributor,3600
,,,,,,Ózd,bevelein01@icloud.com,Castrol SERVICE BRIO TRIO TEAM Kft.,+36 302144187,Bolyki főút 64,Castrol SERVICE,3600
07:30 - 17:30,07:30 - 17:30,08:00 - 13:00,07:30 - 17:30,07:30 - 17:30,07:30 - 17:30,Békéscsaba,bekescsaba@unixauto.hu,Unix Békéscsaba,+36/66-445297,Berényi út 47.,Distributor,5600
,,,,,,Ózd,paroby@gmail.com,Castrol SERVICE Papp AutÓzd Kft.,+36 306272391,Volny József utca 2.,Castrol SERVICE,3600
,,,,,,Békéscsaba,expanzio@mazda-auto.hu,Castrol SERVICE Autó Expanzió Kft.,+36 209262223,Dobozi út 108.,Castrol SERVICE,5600
07:30 - 17:30,07:30 - 17:30,08:00 - 13:00,07:30 - 17:30,07:30 - 17:30,07:30 - 17:30,Dombóvár,dombovar@unixauto.hu,Unix Dombóvár,+36/74-888690,Köztársaság utca 31.,Distributor,7200
07:30 - 17:30,07:30 - 17:30,08:00 - 13:00,07:30 - 17:30,07:30 - 17:30,07:30 - 17:30,Dombóvár,,Bárdi Autó Zrt.,3674815660,Köztársaság út 36.,Distributor,7200
,,,,,,Dombóvár,szummaut@gmail.com,Castrol SERVICE Szumma Kkt.,+36 309742839,Szabadság utca 9.,Castrol SERVICE,7200
,,,,,,Miskolc,silafrontcar@gmail.com,Castrol SERVICE Sila Front-Car Kft.,+36 703620143,Futó u. 72.,Castrol SERVICE,3508
07:30 - 17:30,07:30 - 17:30,08:00 - 13:00,07:30 - 17:30,07:30 - 17:30,07:30 - 17:30,Komló,komlo@unixauto.hu,Unix Komló,+36/72-887654,Bem József u. 4.,Distributor,7300
07:30 - 17:30,07:30 - 17:30,08:00 - 13:00,07:30 - 17:30,07:30 - 17:30,07:30 - 17:30,Tiszaújváros,tiszaujvaros@unixauto.hu,Unix Tiszaújváros,+36/49-886399,Debreceni út 3.,Distributor,3580
07:30 - 17:30,07:30 - 17:30,08:00 - 13:00,07:30 - 17:30,07:30 - 17:30,07:30 - 17:30,Mohács,,Bárdi Autó Zrt.,3669814050,Kossuth Lajos u.72.,Distributor,7700
08:00 - 17:00,08:00 - 17:00,08:00 - 12:00,08:00 - 17:00,08:00 - 17:00,08:00 - 17:00,Miskolc,miskolc@langauto.hu,Láng Kft.,+36 46 411 822,József Attila u. 74.,Distributor,3527
07:30 - 17:30,07:30 - 17:30,08:00 - 13:00,07:30 - 17:30,07:30 - 17:30,07:30 - 17:30,Miskolc,miskolc@unixauto.hu,Unix Miskolc,+36/46-506857,József Attila u. 74.,Distributor,3527
,,,,,,Miskolc,miskolc@autonet-group.com,Autonet Import Magyarország Kft.,+36 27 548 250,Fonoda u. 2.,Distributor,3527
07:30 - 17:30,07:30 - 17:30,08:00 - 13:00,07:30 - 17:30,07:30 - 17:30,07:30 - 17:30,Mohács,mohacs@unixauto.hu,Unix Mohács,+36/69-889103,Pécsi út 43.,Distributor,7700
07:30 - 17:30,07:30 - 17:30,08:00 - 13:00,07:30 - 17:30,07:30 - 17:30,07:30 - 17:30,Miskolc,,Bárdi Autó Zrt.,3646505040,Repülőtéri út 8/c,Distributor,3526
07:30 - 17:30,07:30 - 17:30,08:00 - 13:00,07:30 - 17:30,07:30 - 17:30,07:30 - 17:30,Gyula,gyula@unixauto.hu,Unix Gyula,+36/66-889147,Csabai út 9.,Distributor,5700
,,,,,,Hajdúszoboszló,scsirkes@gmail.com,Castrol SERVICE An-Csir Kft.,06709436758,Hamvas utca 2.,Castrol SERVICE,4200
07:30 - 17:30,07:30 - 17:30,08:00 - 13:00,07:30 - 17:30,07:30 - 17:30,07:30 - 17:30,Hajdúszoboszló,hajduszoboszlo@unixauto.hu,Unix Hajdúszoboszló,+36/52-888674,Dózsa György u. 19,Distributor,4200
07:30 - 17:30,07:30 - 17:30,08:00 - 13:00,07:30 - 17:30,07:30 - 17:30,07:30 - 17:30,Gyula,,Bárdi Autó Zrt.,3666814641,Kétegyházi u. 1/a,Distributor,5700
07:30 - 17:30,07:30 - 17:30,08:00 - 13:00,07:30 - 17:30,07:30 - 17:30,07:30 - 17:30,Hajdúszoboszló,,Bárdi Autó Zrt.,3652814680,Debreceni út 10.,Distributor,4200
07:30 - 17:30,07:30 - 17:30,08:00 - 13:00,07:30 - 17:30,07:30 - 17:30,07:30 - 17:30,Ajka,ajka@unixauto.hu,Unix Ajka,+36/88-200025,Hársfa u.1/b,Distributor,8400
07:30 - 17:30,07:30 - 17:30,08:00 - 13:00,07:30 - 17:30,07:30 - 17:30,07:30 - 17:30,Kazincbarcika,,Bárdi Autó Zrt.,3648814830,Hadak útja 11.,Distributor,3700
07:30 - 17:30,07:30 - 17:30,08:00 - 13:00,07:30 - 17:30,07:30 - 17:30,07:30 - 17:30,Ajka,,Bárdi Autó Zrt.,3688814560,Fő út 70.,Distributor,8400
07:30 - 17:30,07:30 - 17:30,08:00 - 13:00,07:30 - 17:30,07:30 - 17:30,07:30 - 17:30,Kazincbarcika,kazincbarcika@unixauto.hu,Unix Kazincbarcika,+36/48-704020,Bercsényi u.2.,Distributor,3700
,,,,,,Győr,gyor@autonet-group.com,Autonet Import Magyarország Kft.,+36 27 548 250,Hűtőház u. 25.,Distributor,9027
08:00 - 17:00,08:00 - 17:00,08:00 - 12:00,08:00 - 17:00,08:00 - 17:00,08:00 - 17:00,Győr,gyor@langauto.hu,Láng Kft.,+36 96 518 431,Richter János u. 11.,Distributor,9023
07:30 - 17:30,07:30 - 17:30,08:00 - 13:00,07:30 - 17:30,07:30 - 17:30,07:30 - 17:30,Győr (É),gyor2@unixauto.hu,Unix Győr II.,+36/96-887948,Puskás Tivadar utca 8.,Distributor,9027
07:30 - 17:30,07:30 - 17:30,08:00 - 13:00,07:30 - 17:30,07:30 - 17:30,07:30 - 17:30,Győr,gyor@unixauto.hu,Unix Győr,+36/96-518280,Mécs László út 5.,Distributor,9024
07:30 - 17:30,07:30 - 17:30,08:00 - 13:00,07:30 - 17:30,07:30 - 17:30,07:30 - 17:30,Pápa,papa@unixauto.hu,Unix Pápa,+36/89-311992,Külső- Veszprémi út 57.,Distributor,8500
07:30 - 17:30,07:30 - 17:30,08:00 - 13:00,07:30 - 17:30,07:30 - 17:30,07:30 - 17:30,Pápa,,Bárdi Autó Zrt.,3689814050,Külső-Veszprémi út 51.,Distributor,8500
,,,,,,Pécs,pecs@autonet-group.com,Autonet Import Magyarország Kft.,+36 27 548 250,Bajor u. 3.,Distributor,7630
07:30 - 17:30,07:30 - 17:30,08:00 - 13:00,07:30 - 17:30,07:30 - 17:30,07:30 - 17:30,Gyor,,Bárdi Autó Zrt.,3696310501,Csipkegyári út 6.,Distributor,9025
07:30 - 17:30,07:30 - 17:30,08:00 - 13:00,07:30 - 17:30,07:30 - 17:30,07:30 - 17:30,Berettyóújfalu,berettyoujfalu@unixauto.hu,Unix Berettyóújfalu,+36/54-889101,Kossuth út 82,Distributor,4100
07:30 - 17:30,07:30 - 17:30,08:00 - 13:00,07:30 - 17:30,07:30 - 17:30,07:30 - 17:30,Berettyóújfalu,,Bárdi Autó Zrt.,3654814640,Dózsa György utca 49.,Distributor,4100
,,,,,,Kaposvár,t.csoko@osz-car.hu,Castrol SERVICE Osz-Car Szerviz,36302860478,Toponári út 2,Castrol SERVICE,7400
07:30 - 17:30,07:30 - 17:30,08:00 - 13:00,07:30 - 17:30,07:30 - 17:30,07:30 - 17:30,Pécs,,Bárdi Autó Zrt.,3672222523,Farkas I. u. 2.,Distributor,7626
,,,,,,Pécs,pecsiautoszerviz@gmail.com,Castrol SERVICE Cerelog Kft.,+36 202539195,Sport u. 7.,Castrol SERVICE,7622
07:30 - 17:30,07:30 - 17:30,08:00 - 13:00,07:30 - 17:30,07:30 - 17:30,07:30 - 17:30,Pécs,pecs@unixauto.hu,Unix Pécs,+36/72-333296,Légszeszgyár u. 36.,Distributor,7622
08:00 - 17:00,08:00 - 17:00,08:00 - 12:00,08:00 - 17:00,08:00 - 17:00,08:00 - 17:00,Pécs,pecs@langauto.hu,Láng Kft.,+36 72 213 801,Megyeri tér 21.,Distributor,7623
07:30 - 17:30,07:30 - 17:30,08:00 - 13:00,07:30 - 17:30,07:30 - 17:30,07:30 - 17:30,Kaposvár,,Bárdi Autó Zrt.,3682311684,Raktár utca 28/A.,Distributor,7400
07:30 - 17:30,07:30 - 17:30,08:00 - 13:00,07:30 - 17:30,07:30 - 17:30,07:30 - 17:30,Kaposvár,kaposvar@unixauto.hu,Unix Kaposvár,+36/82-510290,Füredi utca 55.,Distributor,7400
,,,,,,Pécs,info@mecsekszerviz.hu,Castrol SERVICE Varga Roland E.V.,+36 203573771,Páfrány u. 8.,Castrol SERVICE,7633
,,,,,,Kaposvár,kaposvar@autonet-group.com,Autonet Import Magyarország Kft.,+36 27 548 250,Jutai út 2.,Distributor,7400
